BEIDOU-3 M9             
1 43245U 18029A   26063.77860799 -.00000062  00000+0  00000+0 0  9995
2 43245  54.2878 303.6009 0000937  21.7845 338.2765  1.86228195 53959
BEIDOU-3 M10            
1 43246U 18029B   26065.86131185 -.00000066  00000+0  00000+0 0  9992
2 43246  54.2835 303.5552 0005193  25.1778 334.8994  1.86228989 53976
IRNSS-1I                
1 43286U 18035A   26065.59256913  .00000086  00000+0  00000+0 0  9991
2 43286  28.9346  75.7801 0018963 190.6828 166.3188  1.00278580 29045
COSMOS 2527 [GLONASS-M] 
1 43508U 18053A   26064.84716644  .00000005  00000+0  00000+0 0  9998
2 43508  65.5190  77.3533 0009601 245.4642 114.4730  2.13102075 60073
BEIDOU-2 IGSO-7         
1 43539U 18057A   26056.73984515 -.00000161  00000+0  00000+0 0  9993
2 43539  55.1859 164.0342 0099962 236.5988 133.5173  1.00284731 28015
GSAT0221 (GALILEO 25)   
1 43564U 18060A   26065.99917537 -.00000103  00000+0  00000+0 0  9999
2 43564  57.2026 344.5430 0005694 308.1098  51.8621  1.70475614 47427
GSAT0222 (GALILEO 26)   
1 43565U 18060B   26065.04549094 -.00000105  00000+0  00000+0 0  9997
2 43565  57.2060 344.5721 0004084 287.9587  72.0183  1.70475258 47453
GSAT0219 (GALILEO 23)   
1 43566U 18060C   26065.26653775 -.00000104  00000+0  00000+0 0  9993
2 43566  57.2056 344.5677 0004933 321.2111  38.7755  1.70475265 47437
GSAT0220 (GALILEO 24)   
1 43567U 18060D   26058.44840234 -.00000102  00000+0  00000+0 0  9992
2 43567  57.2075 344.7516 0005301 308.5821  51.3768  1.70475159 47302
BEIDOU-3 M5             
1 43581U 18062A   26065.01153201  .00000011  00000+0  00000+0 0  9990
2 43581  54.0879 185.8116 0002277 307.0485  52.9036  1.86228711 51716
BEIDOU-3 M6             
1 43582U 18062B   26065.41141788  .00000014  00000+0  00000+0 0  9995
2 43582  54.0875 185.7868 0006178  43.6988 316.3254  1.86227738 51729
BEIDOU-3 M12            
1 43602U 18067A   26065.88680434  .00000015  00000+0  00000+0 0  9991
2 43602  54.1822 184.5089 0008544  39.5738 320.4688  1.86227805 51219
BEIDOU-3 M11            
1 43603U 18067B   26065.48459603  .00000014  00000+0  00000+0 0  9999
2 43603  54.1797 184.4865 0004937  32.9880 327.0209  1.86227201 51233
BEIDOU-3 M13            
1 43622U 18072A   26063.82956810 -.00000029  00000+0  00000+0 0  9991
2 43622  56.5333  66.1018 0008916 307.8246  52.1164  1.86230808 50718
BEIDOU-3 M14            
1 43623U 18072B   26063.69502611 -.00000028  00000+0  00000+0 0  9992
2 43623  56.5350  66.1003 0006376 328.8150  31.1695  1.86230841 50709
BEIDOU-3 M16            
1 43647U 18078A   26065.99967373 -.00000066  00000+0  00000+0 0  9991
2 43647  54.1822 303.5696 0008467  31.5252 328.5770  1.86232416 50250
BEIDOU-3 M15            
1 43648U 18078B   26062.37035185 -.00000055  00000+0  00000+0 0  9996
2 43648  54.1808 303.6975 0005342  38.8897 321.2084  1.86232017 50200
